0 ARIANE 44L DEB
1 33589U 91003S   13281.36232808 -.00000015  00000-0  10000-3 0  3027
2 33589 006.7793 185.6468 6766249 249.6202 029.6528 02.63513157 70030
0 ARIANE 44L DEB
1 33589U 91003S   13282.45436678 -.00000260  00000-0 -77716-2 0  3039
2 33589 006.7954 185.1598 6765679 250.5727 345.6018 02.63508041 70061
0 ARIANE 44L DEB
1 33589U 91003S   13294.25825337 -.00000072  00000-0  10000-3 0  3049
2 33589 006.8252 179.7010 6762218 260.9181 022.9535 02.63503318 70371
